IRIDIUM 119             
1 42959U 17061E   24154.48728163  .00000073  00000+0  18966-4 0  9992
2 42959  86.3962 336.4634 0001844  86.4077 273.7330 14.34214631348079
IRIDIUM 107             
1 42960U 17061F   24154.50630814  .00000138  00000+0  42367-4 0  9996
2 42960  86.3962 336.4722 0001860  92.5918 267.5490 14.34217720348080
IRIDIUM 132             
1 42961U 17061G   24154.51266606  .00000166  00000+0  52161-4 0  9996
2 42961  86.3960 336.4540 0001937  98.3625 261.7790 14.34213516348089
IRIDIUM 136             
1 42962U 17061H   24154.47460482  .00000134  00000+0  40872-4 0  9991
2 42962  86.3962 336.4733 0001945  81.6125 278.5291 14.34216020348091
IRIDIUM 139             
1 42963U 17061J   24154.48093845  .00000128  00000+0  38592-4 0  9997
2 42963  86.3963 336.5205 0001829  96.6499 263.4905 14.34216251348102
IRIDIUM 125             
1 42964U 17061K   24154.46825557  .00000129  00000+0  38897-4 0  9998
2 42964  86.3965 336.5734 0001692  84.9824 275.1565 14.34216979348112
IRIDIUM 135             
1 43070U 17083A   24154.79123816  .00000294  00000+0  98056-4 0  9992
2 43070  86.3957 273.0855 0002595  98.0134 262.1356 14.34220239337457
IRIDIUM 138             
1 43071U 17083B   24154.39800127  .00000383  00000+0  12983-3 0  9999
2 43071  86.3945 272.9689 0001985  87.2867 272.8556 14.34218367337384
